ONEWEB-0349             
1 49281U 21090C   25122.92897993  .00000047  00000+0  82653-4 0  9992
2 49281  87.9298 356.1394 0001721  85.1703 274.9627 13.20771201176965
ONEWEB-0353             
1 49282U 21090D   25123.24031397 -.00000081  00000+0 -25338-3 0  9993
2 49282  87.9080  11.2502 0001678  72.2408 287.8905 13.14502932175018
ONEWEB-0356             
1 49283U 21090E   25122.92740752  .00000048  00000+0  86678-4 0  9996
2 49283  87.9299 356.1313 0002617  71.0064 289.1353 13.20771762176964
ONEWEB-0358             
1 49284U 21090F   25122.73013198  .00000025  00000+0  28717-4 0  9998
2 49284  87.9298 356.1601 0001969  83.6304 276.5054 13.20771908176374
ONEWEB-0359             
1 49285U 21090G   25122.72697383 -.00000033  00000+0 -11305-3 0  9997
2 49285  87.9297 356.1734 0002046  92.5541 267.5826 13.20771746176355
ONEWEB-0360             
1 49286U 21090H   25122.71750093  .00000034  00000+0  51034-4 0  9998
2 49286  87.9296 356.1813 0001907  86.7327 273.4024 13.20772273175660
ONEWEB-0361             
1 49287U 21090J   25122.92583160  .00000062  00000+0  12125-3 0  9999
2 49287  87.9299 356.1352 0001947  79.6435 280.4917 13.20772416176970
ONEWEB-0362             
1 49288U 21090K   25123.23582033 -.00000121  00000+0 -33376-3 0  9992
2 49288  87.9259  26.4791 0001691  83.7519 276.3806 13.19724916173660
